{
  "type": "FeatureCollection",
  "features": [
    {
      "type": "Feature",
      "properties": {
        "name": "Adagio Aix Centre"
      },
      "geometry": {
        "type": "Point",
        "coordinates": [
          5.440842,
          43.528998
        ]
      }
    },
    {
      "type": "Feature",
      "properties": {
        "name": "Rotonde"
      },
      "geometry": {
        "type": "Point",
        "coordinates": [
          5.44582,
          43.5267
        ]
      }
    },
    {
      "type": "Feature",
      "properties": {
        "name": "Cours Mirabeau"
      },
      "geometry": {
        "type": "Point",
        "coordinates": [
          5.44925,
          43.52622
        ]
      }
    },
    {
      "type": "Feature",
      "properties": {
        "name": "Musée Granet"
      },
      "geometry": {
        "type": "Point",
        "coordinates": [
          5.45251,
          43.52557
        ]
      }
    },
    {
      "type": "Feature",
      "properties": {
        "name": "Cassis"
      },
      "geometry": {
        "type": "Point",
        "coordinates": [
          5.53962,
          43.21401
        ]
      }
    },
    {
      "type": "Feature",
      "properties": {
        "name": "Atelier Cézanne"
      },
      "geometry": {
        "type": "Point",
        "coordinates": [
          5.44704,
          43.53964
        ]
      }
    },
    {
      "type": "Feature",
      "properties": {
        "name": "Lourmarin"
      },
      "geometry": {
        "type": "Point",
        "coordinates": [
          5.36383,
          43.76373
        ]
      }
    }
  ]
}