{
  "type": "FeatureCollection",
  "features": [
    {
      "type": "Feature",
      "properties": {
        "name": "Adagio Aix Centre",
        "sequence": 1,
        "category": "숙소 후보",
        "status": "후보 — 실제 예약 후 교체",
        "google_maps": "https://www.google.com/maps/search/?api=1&query=Adagio+Aix+Centre",
        "phase": "Phase 6"
      },
      "geometry": {
        "type": "Point",
        "coordinates": [
          5.440842,
          43.528998
        ]
      }
    },
    {
      "type": "Feature",
      "properties": {
        "name": "Rotonde",
        "sequence": 2,
        "category": "교통",
        "status": "일정 기준점",
        "google_maps": "https://www.google.com/maps/search/?api=1&query=Rotonde",
        "phase": "Phase 6"
      },
      "geometry": {
        "type": "Point",
        "coordinates": [
          5.44582,
          43.5267
        ]
      }
    },
    {
      "type": "Feature",
      "properties": {
        "name": "Cours Mirabeau",
        "sequence": 3,
        "category": "핵심 방문지",
        "status": "일정 기준점",
        "google_maps": "https://www.google.com/maps/search/?api=1&query=Cours+Mirabeau",
        "phase": "Phase 6"
      },
      "geometry": {
        "type": "Point",
        "coordinates": [
          5.44925,
          43.52622
        ]
      }
    },
    {
      "type": "Feature",
      "properties": {
        "name": "Musée Granet",
        "sequence": 4,
        "category": "핵심 방문지",
        "status": "일정 기준점",
        "google_maps": "https://www.google.com/maps/search/?api=1&query=Musée+Granet",
        "phase": "Phase 6"
      },
      "geometry": {
        "type": "Point",
        "coordinates": [
          5.45251,
          43.52557
        ]
      }
    },
    {
      "type": "Feature",
      "properties": {
        "name": "Cassis",
        "sequence": 5,
        "category": "근교·이동지",
        "status": "선택 대안 — Marseille와 결합 금지",
        "google_maps": "https://www.google.com/maps/search/?api=1&query=Cassis",
        "phase": "Phase 6"
      },
      "geometry": {
        "type": "Point",
        "coordinates": [
          5.53962,
          43.21401
        ]
      }
    },
    {
      "type": "Feature",
      "properties": {
        "name": "Marseille Saint-Charles",
        "sequence": 6,
        "category": "교통",
        "status": "9/11 기본 당일치기 도착점",
        "google_maps": "https://www.google.com/maps/search/?api=1&query=Marseille+Saint-Charles",
        "phase": "확정 일정 2026-08-04"
      },
      "geometry": {
        "type": "Point",
        "coordinates": [
          5.3805,
          43.3026
        ]
      }
    },
    {
      "type": "Feature",
      "properties": {
        "name": "Vieux-Port",
        "sequence": 7,
        "category": "핵심 방문지",
        "status": "9/11 기본 일정",
        "google_maps": "https://www.google.com/maps/search/?api=1&query=Vieux-Port",
        "phase": "확정 일정 2026-08-04"
      },
      "geometry": {
        "type": "Point",
        "coordinates": [
          5.374,
          43.2951
        ]
      }
    },
    {
      "type": "Feature",
      "properties": {
        "name": "Le Panier",
        "sequence": 8,
        "category": "핵심 방문지",
        "status": "9/11 기본 일정",
        "google_maps": "https://www.google.com/maps/search/?api=1&query=Le+Panier",
        "phase": "확정 일정 2026-08-04"
      },
      "geometry": {
        "type": "Point",
        "coordinates": [
          5.3674,
          43.3006
        ]
      }
    },
    {
      "type": "Feature",
      "properties": {
        "name": "Mucem",
        "sequence": 9,
        "category": "핵심 방문지",
        "status": "9/11 기본 일정",
        "google_maps": "https://www.google.com/maps/search/?api=1&query=Mucem",
        "phase": "확정 일정 2026-08-04"
      },
      "geometry": {
        "type": "Point",
        "coordinates": [
          5.3612,
          43.2967
        ]
      }
    },
    {
      "type": "Feature",
      "properties": {
        "name": "Fort Saint-Jean",
        "sequence": 10,
        "category": "핵심 방문지",
        "status": "9/11 기본 일정",
        "google_maps": "https://www.google.com/maps/search/?api=1&query=Fort+Saint-Jean",
        "phase": "확정 일정 2026-08-04"
      },
      "geometry": {
        "type": "Point",
        "coordinates": [
          5.3635,
          43.2959
        ]
      }
    },
    {
      "type": "Feature",
      "properties": {
        "name": "Notre-Dame de la Garde",
        "sequence": 11,
        "category": "근교·이동지",
        "status": "체력·날씨에 따른 선택",
        "google_maps": "https://www.google.com/maps/search/?api=1&query=Notre-Dame+de+la+Garde",
        "phase": "확정 일정 2026-08-04"
      },
      "geometry": {
        "type": "Point",
        "coordinates": [
          5.3712,
          43.2841
        ]
      }
    },
    {
      "type": "Feature",
      "properties": {
        "name": "Atelier Cézanne",
        "sequence": 12,
        "category": "핵심 방문지",
        "status": "일정 기준점",
        "google_maps": "https://www.google.com/maps/search/?api=1&query=Atelier+Cézanne",
        "phase": "Phase 6"
      },
      "geometry": {
        "type": "Point",
        "coordinates": [
          5.44704,
          43.53964
        ]
      }
    },
    {
      "type": "Feature",
      "properties": {
        "name": "Lourmarin",
        "sequence": 13,
        "category": "근교·이동지",
        "status": "일정 기준점",
        "google_maps": "https://www.google.com/maps/search/?api=1&query=Lourmarin",
        "phase": "Phase 6"
      },
      "geometry": {
        "type": "Point",
        "coordinates": [
          5.36383,
          43.76373
        ]
      }
    }
  ]
}
