{
  "type": "FeatureCollection",
  "features": [
    {
      "type": "Feature",
      "properties": {
        "name": "La Terrasse du Clocher",
        "sequence": 1,
        "category": "숙소 후보",
        "status": "후보 — 실제 예약 후 교체",
        "google_maps": "https://www.google.com/maps/search/?api=1&query=La+Terrasse+du+Clocher",
        "phase": "Phase 6"
      },
      "geometry": {
        "type": "Point",
        "coordinates": [
          4.81302,
          43.94993
        ]
      }
    },
    {
      "type": "Feature",
      "properties": {
        "name": "Les Halles",
        "sequence": 2,
        "category": "시장·생활",
        "status": "일정 기준점",
        "google_maps": "https://www.google.com/maps/search/?api=1&query=Les+Halles",
        "phase": "Phase 6"
      },
      "geometry": {
        "type": "Point",
        "coordinates": [
          4.80903,
          43.94787
        ]
      }
    },
    {
      "type": "Feature",
      "properties": {
        "name": "Palais des Papes",
        "sequence": 3,
        "category": "핵심 방문지",
        "status": "일정 기준점",
        "google_maps": "https://www.google.com/maps/search/?api=1&query=Palais+des+Papes",
        "phase": "Phase 6"
      },
      "geometry": {
        "type": "Point",
        "coordinates": [
          4.8075,
          43.95078
        ]
      }
    },
    {
      "type": "Feature",
      "properties": {
        "name": "Pont Saint-Bénézet",
        "sequence": 4,
        "category": "핵심 방문지",
        "status": "일정 기준점",
        "google_maps": "https://www.google.com/maps/search/?api=1&query=Pont+Saint-Bénézet",
        "phase": "Phase 6"
      },
      "geometry": {
        "type": "Point",
        "coordinates": [
          4.80508,
          43.95389
        ]
      }
    },
    {
      "type": "Feature",
      "properties": {
        "name": "Uzès",
        "sequence": 5,
        "category": "근교·이동지",
        "status": "일정 기준점",
        "google_maps": "https://www.google.com/maps/search/?api=1&query=Uzès",
        "phase": "Phase 6"
      },
      "geometry": {
        "type": "Point",
        "coordinates": [
          4.41974,
          44.0121
        ]
      }
    },
    {
      "type": "Feature",
      "properties": {
        "name": "Pont du Gard",
        "sequence": 6,
        "category": "근교·이동지",
        "status": "일정 기준점",
        "google_maps": "https://www.google.com/maps/search/?api=1&query=Pont+du+Gard",
        "phase": "Phase 6"
      },
      "geometry": {
        "type": "Point",
        "coordinates": [
          4.53502,
          43.9475
        ]
      }
    },
    {
      "type": "Feature",
      "properties": {
        "name": "Les Baux",
        "sequence": 7,
        "category": "근교·이동지",
        "status": "일정 기준점",
        "google_maps": "https://www.google.com/maps/search/?api=1&query=Les+Baux",
        "phase": "Phase 6"
      },
      "geometry": {
        "type": "Point",
        "coordinates": [
          4.79531,
          43.74473
        ]
      }
    },
    {
      "type": "Feature",
      "properties": {
        "name": "Saint-Rémy",
        "sequence": 8,
        "category": "근교·이동지",
        "status": "일정 기준점",
        "google_maps": "https://www.google.com/maps/search/?api=1&query=Saint-Rémy",
        "phase": "Phase 6"
      },
      "geometry": {
        "type": "Point",
        "coordinates": [
          4.83168,
          43.78842
        ]
      }
    }
  ]
}