<?xml version="1.0" encoding="UTF-8"?>
<kml xmlns="http://www.opengis.net/kml/2.2"><Document>
<Placemark><name>[숙소 후보] La Terrasse du Clocher</name><description>후보 — 실제 예약 후 교체</description><Point><coordinates>4.81302,43.94993,0</coordinates></Point></Placemark>
<Placemark><name>[시장·생활] Les Halles</name><description>일정 기준점</description><Point><coordinates>4.80903,43.94787,0</coordinates></Point></Placemark>
<Placemark><name>[핵심 방문지] Palais des Papes</name><description>일정 기준점</description><Point><coordinates>4.8075,43.95078,0</coordinates></Point></Placemark>
<Placemark><name>[핵심 방문지] Pont Saint-Bénézet</name><description>일정 기준점</description><Point><coordinates>4.80508,43.95389,0</coordinates></Point></Placemark>
<Placemark><name>[근교·이동지] Uzès</name><description>일정 기준점</description><Point><coordinates>4.41974,44.0121,0</coordinates></Point></Placemark>
<Placemark><name>[근교·이동지] Pont du Gard</name><description>일정 기준점</description><Point><coordinates>4.53502,43.9475,0</coordinates></Point></Placemark>
<Placemark><name>[교통] Arles</name><description>9/19 철도 기본 도착점</description><Point><coordinates>4.6326,43.6846,0</coordinates></Point></Placemark>
<Placemark><name>[핵심 방문지] Arènes d’Arles</name><description>9/19 기본 일정</description><Point><coordinates>4.6309,43.6776,0</coordinates></Point></Placemark>
<Placemark><name>[핵심 방문지] Théâtre antique</name><description>9/19 기본 일정</description><Point><coordinates>4.6279,43.6765,0</coordinates></Point></Placemark>
<Placemark><name>[시장·생활] Place du Forum</name><description>점심·카페 휴식</description><Point><coordinates>4.6272,43.6773,0</coordinates></Point></Placemark>
<Placemark><name>[핵심 방문지] Cloître Saint-Trophime</name><description>일정 균형에 따른 우선 선택</description><Point><coordinates>4.6285,43.6769,0</coordinates></Point></Placemark>
<Placemark><name>[핵심 방문지] Fondation Vincent van Gogh</name><description>Saint-Trophime과 교환하는 선택</description><Point><coordinates>4.6262,43.676,0</coordinates></Point></Placemark>
<Placemark><name>[시장·생활] La Roquette</name><description>론강변과 잇는 기본 산책</description><Point><coordinates>4.6249,43.6729,0</coordinates></Point></Placemark>
<Placemark><name>[교통] Arles</name><description>9/19 철도 기본 도착점</description><Point><coordinates>4.6326,43.6846,0</coordinates></Point></Placemark>
<Placemark><name>[핵심 방문지] Arènes d’Arles</name><description>9/19 기본 일정</description><Point><coordinates>4.6309,43.6776,0</coordinates></Point></Placemark>
<Placemark><name>[핵심 방문지] Théâtre antique</name><description>9/19 기본 일정</description><Point><coordinates>4.6279,43.6765,0</coordinates></Point></Placemark>
<Placemark><name>[시장·생활] Place du Forum</name><description>점심·카페 휴식</description><Point><coordinates>4.6272,43.6773,0</coordinates></Point></Placemark>
<Placemark><name>[핵심 방문지] Cloître Saint-Trophime</name><description>일정 균형에 따른 우선 선택</description><Point><coordinates>4.6285,43.6769,0</coordinates></Point></Placemark>
<Placemark><name>[핵심 방문지] Fondation Vincent van Gogh</name><description>Saint-Trophime과 교환하는 선택</description><Point><coordinates>4.6262,43.676,0</coordinates></Point></Placemark>
<Placemark><name>[시장·생활] La Roquette</name><description>론강변과 잇는 기본 산책</description><Point><coordinates>4.6249,43.6729,0</coordinates></Point></Placemark>
<Placemark><name>[MUST · Day 19] Les Baux</name><description>선택 대안 — Arles 전체 교체 시만</description><Point><coordinates>4.79531,43.74473,0</coordinates></Point></Placemark>
<Placemark><name>[MUST · Day 19] Saint-Rémy</name><description>선택 대안 — Arles 전체 교체 시만</description><Point><coordinates>4.83168,43.78842,0</coordinates></Point></Placemark>
<Placemark><name>[OPTIONAL · Day 19] Orange · Théâtre antique</name><description>Saint-Rémy와 Les Baux를 충분히 마친 경우만 · 첫 생략</description><Point><coordinates>4.8078783,44.1371311,0</coordinates></Point></Placemark>
</Document></kml>