{
  "type": "FeatureCollection",
  "features": [
    {
      "type": "Feature",
      "properties": {
        "name": "Occidental Barcelona 1929",
        "sequence": 1,
        "category": "확정 숙소",
        "status": "예약완료 · 2026-08-29~09-01 · 3박",
        "google_maps": "https://www.google.com/maps/search/?api=1&query=Carrer+de+la+Creu+Coberta+20-22%2C+08014+Barcelona",
        "address": "Carrer de la Creu Coberta, 20-22, 08014 Barcelona, Catalonia, Spain",
        "coordinates_verified": "OSM Nominatim address result, 2026-08-05",
        "phase": "Confirmed booking"
      },
      "geometry": {
        "type": "Point",
        "coordinates": [
          2.1476619,
          41.3752738
        ]
      }
    },
    {
      "type": "Feature",
      "properties": {
        "name": "Sagrada Família",
        "sequence": 2,
        "category": "핵심 방문지",
        "status": "일정 기준점",
        "google_maps": "https://www.google.com/maps/search/?api=1&query=Sagrada+Família",
        "phase": "Phase 6"
      },
      "geometry": {
        "type": "Point",
        "coordinates": [
          2.17436,
          41.40363
        ]
      }
    },
    {
      "type": "Feature",
      "properties": {
        "name": "Sant Pau",
        "sequence": 3,
        "category": "핵심 방문지",
        "status": "일정 기준점",
        "google_maps": "https://www.google.com/maps/search/?api=1&query=Sant+Pau",
        "phase": "Phase 6"
      },
      "geometry": {
        "type": "Point",
        "coordinates": [
          2.17438,
          41.41193
        ]
      }
    },
    {
      "type": "Feature",
      "properties": {
        "name": "Gòtic",
        "sequence": 4,
        "category": "핵심 방문지",
        "status": "일정 기준점",
        "google_maps": "https://www.google.com/maps/search/?api=1&query=Gòtic",
        "phase": "Phase 6"
      },
      "geometry": {
        "type": "Point",
        "coordinates": [
          2.1761,
          41.3838
        ]
      }
    },
    {
      "type": "Feature",
      "properties": {
        "name": "Biblioteca de Catalunya",
        "sequence": 5,
        "category": "핵심 방문지",
        "status": "일정 기준점",
        "google_maps": "https://www.google.com/maps/search/?api=1&query=Biblioteca+de+Catalunya",
        "phase": "Phase 6"
      },
      "geometry": {
        "type": "Point",
        "coordinates": [
          2.17016,
          41.38144
        ]
      }
    },
    {
      "type": "Feature",
      "properties": {
        "name": "MACBA",
        "sequence": 6,
        "category": "핵심 방문지",
        "status": "일정 기준점",
        "google_maps": "https://www.google.com/maps/search/?api=1&query=MACBA",
        "phase": "Phase 6"
      },
      "geometry": {
        "type": "Point",
        "coordinates": [
          2.16672,
          41.38316
        ]
      }
    },
    {
      "type": "Feature",
      "properties": {
        "name": "Barcelona Sants",
        "sequence": 7,
        "category": "교통",
        "status": "일정 기준점",
        "google_maps": "https://www.google.com/maps/search/?api=1&query=Barcelona+Sants",
        "phase": "Phase 6"
      },
      "geometry": {
        "type": "Point",
        "coordinates": [
          2.14007,
          41.37917
        ]
      }
    },
    {
      "type": "Feature",
      "properties": {
        "name": "Sitges",
        "sequence": 8,
        "category": "근교·이동지",
        "status": "일정 기준점",
        "google_maps": "https://www.google.com/maps/search/?api=1&query=Sitges",
        "phase": "Phase 6"
      },
      "geometry": {
        "type": "Point",
        "coordinates": [
          1.81204,
          41.23512
        ]
      }
    }
  ]
}