{
  "type": "FeatureCollection",
  "features": [
    {
      "type": "Feature",
      "properties": {
        "name": "Hotel Carlemany",
        "sequence": 1,
        "category": "숙소 후보",
        "status": "후보 — 실제 예약 후 교체",
        "google_maps": "https://www.google.com/maps/search/?api=1&query=Hotel+Carlemany",
        "phase": "Phase 6"
      },
      "geometry": {
        "type": "Point",
        "coordinates": [
          2.8213,
          41.97865
        ]
      }
    },
    {
      "type": "Feature",
      "properties": {
        "name": "Girona Cathedral",
        "sequence": 2,
        "category": "핵심 방문지",
        "status": "일정 기준점",
        "google_maps": "https://www.google.com/maps/search/?api=1&query=Girona+Cathedral",
        "phase": "Phase 6"
      },
      "geometry": {
        "type": "Point",
        "coordinates": [
          2.82611,
          41.98741
        ]
      }
    },
    {
      "type": "Feature",
      "properties": {
        "name": "Onyar Houses",
        "sequence": 3,
        "category": "핵심 방문지",
        "status": "일정 기준점",
        "google_maps": "https://www.google.com/maps/search/?api=1&query=Onyar+Houses",
        "phase": "Phase 6"
      },
      "geometry": {
        "type": "Point",
        "coordinates": [
          2.82402,
          41.98473
        ]
      }
    },
    {
      "type": "Feature",
      "properties": {
        "name": "Collioure",
        "sequence": 4,
        "category": "근교·이동지",
        "status": "일정 기준점",
        "google_maps": "https://www.google.com/maps/search/?api=1&query=Collioure",
        "phase": "Phase 6"
      },
      "geometry": {
        "type": "Point",
        "coordinates": [
          3.08322,
          42.52505
        ]
      }
    },
    {
      "type": "Feature",
      "properties": {
        "name": "Peralada",
        "sequence": 5,
        "category": "근교·이동지",
        "status": "일정 기준점",
        "google_maps": "https://www.google.com/maps/search/?api=1&query=Peralada",
        "phase": "Phase 6"
      },
      "geometry": {
        "type": "Point",
        "coordinates": [
          3.01017,
          42.30872
        ]
      }
    },
    {
      "type": "Feature",
      "properties": {
        "name": "Pals",
        "sequence": 6,
        "category": "근교·이동지",
        "status": "일정 기준점",
        "google_maps": "https://www.google.com/maps/search/?api=1&query=Pals",
        "phase": "Phase 6"
      },
      "geometry": {
        "type": "Point",
        "coordinates": [
          3.14843,
          41.97039
        ]
      }
    },
    {
      "type": "Feature",
      "properties": {
        "name": "Peratallada",
        "sequence": 7,
        "category": "근교·이동지",
        "status": "일정 기준점",
        "google_maps": "https://www.google.com/maps/search/?api=1&query=Peratallada",
        "phase": "Phase 6"
      },
      "geometry": {
        "type": "Point",
        "coordinates": [
          3.09007,
          41.97618
        ]
      }
    },
    {
      "type": "Feature",
      "properties": {
        "name": "Calella de Palafrugell",
        "sequence": 8,
        "category": "근교·이동지",
        "status": "일정 기준점",
        "google_maps": "https://www.google.com/maps/search/?api=1&query=Calella+de+Palafrugell",
        "phase": "Phase 6"
      },
      "geometry": {
        "type": "Point",
        "coordinates": [
          3.18416,
          41.88901
        ]
      }
    }
  ]
}