<?xml version="1.0" encoding="UTF-8"?>
<kml xmlns="http://www.opengis.net/kml/2.2"><Document>
<Placemark><name>Hotel Carlemany</name><Point><coordinates>2.8213,41.97865,0</coordinates></Point></Placemark>
<Placemark><name>Girona Cathedral</name><Point><coordinates>2.82611,41.98741,0</coordinates></Point></Placemark>
<Placemark><name>Onyar Houses</name><Point><coordinates>2.82402,41.98473,0</coordinates></Point></Placemark>
<Placemark><name>Collioure</name><Point><coordinates>3.08322,42.52505,0</coordinates></Point></Placemark>
<Placemark><name>Peralada</name><Point><coordinates>3.01017,42.30872,0</coordinates></Point></Placemark>
<Placemark><name>Pals</name><Point><coordinates>3.14843,41.97039,0</coordinates></Point></Placemark>
<Placemark><name>Peratallada</name><Point><coordinates>3.09007,41.97618,0</coordinates></Point></Placemark>
<Placemark><name>Calella de Palafrugell</name><Point><coordinates>3.18416,41.88901,0</coordinates></Point></Placemark>
</Document></kml>