<?xml version="1.0" encoding="UTF-8"?>
<kml xmlns="http://www.opengis.net/kml/2.2"><Document>
<Placemark><name>[핵심 방문지] Girona Cathedral</name><Point><coordinates>2.82611,41.98741,0</coordinates></Point></Placemark>
<Placemark><name>[핵심 방문지] Onyar Houses</name><Point><coordinates>2.82402,41.98473,0</coordinates></Point></Placemark>
<Placemark><name>[근교·이동지] Collioure</name><Point><coordinates>3.08322,42.52505,0</coordinates></Point></Placemark>
<Placemark><name>[Day 2 핵심 방문지] Cadaqués — 해안 쪽 우회</name><Point><coordinates>3.2584,42.2886,0</coordinates></Point></Placemark>
<Placemark><name>[Day 3 핵심 방문지] Tossa de Mar</name><Point><coordinates>2.9319,41.7195,0</coordinates></Point></Placemark>
<Placemark><name>[Day 3 핵심 방문지] Sant Feliu de Guíxols</name><Point><coordinates>3.0676,41.7800,0</coordinates></Point></Placemark>
<Placemark><name>[대체안] Peralada — 본 일정에서 제외·실제 예약 없음</name><Point><coordinates>3.01017,42.30872,0</coordinates></Point></Placemark>
<Placemark><name>[근교·이동지] Pals</name><Point><coordinates>3.14843,41.97039,0</coordinates></Point></Placemark>
<Placemark><name>[근교·이동지] Peratallada</name><Point><coordinates>3.09007,41.97618,0</coordinates></Point></Placemark>
<Placemark><name>[대체안] Calella de Palafrugell — Day 3 핵심 일정에서 제외</name><Point><coordinates>3.18416,41.88901,0</coordinates></Point></Placemark>
</Document></kml>
