{
  "type": "FeatureCollection",
  "features": [
    {
      "type": "Feature",
      "properties": {
        "name": "Hôtel de Verdun"
      },
      "geometry": {
        "type": "Point",
        "coordinates": [
          4.82968,
          45.74965
        ]
      }
    },
    {
      "type": "Feature",
      "properties": {
        "name": "Bellecour"
      },
      "geometry": {
        "type": "Point",
        "coordinates": [
          4.83202,
          45.75779
        ]
      }
    },
    {
      "type": "Feature",
      "properties": {
        "name": "Fourvière"
      },
      "geometry": {
        "type": "Point",
        "coordinates": [
          4.82259,
          45.76227
        ]
      }
    },
    {
      "type": "Feature",
      "properties": {
        "name": "Vieux Lyon"
      },
      "geometry": {
        "type": "Point",
        "coordinates": [
          4.82754,
          45.76075
        ]
      }
    },
    {
      "type": "Feature",
      "properties": {
        "name": "Croix-Rousse"
      },
      "geometry": {
        "type": "Point",
        "coordinates": [
          4.8318,
          45.77413
        ]
      }
    },
    {
      "type": "Feature",
      "properties": {
        "name": "Halles Paul Bocuse"
      },
      "geometry": {
        "type": "Point",
        "coordinates": [
          4.85042,
          45.76337
        ]
      }
    },
    {
      "type": "Feature",
      "properties": {
        "name": "Parc Tête d’Or"
      },
      "geometry": {
        "type": "Point",
        "coordinates": [
          4.85344,
          45.77969
        ]
      }
    },
    {
      "type": "Feature",
      "properties": {
        "name": "Annecy"
      },
      "geometry": {
        "type": "Point",
        "coordinates": [
          6.12542,
          45.89905
        ]
      }
    }
  ]
}