<?xml version="1.0" encoding="UTF-8"?>
<kml xmlns="http://www.opengis.net/kml/2.2"><Document>
<Placemark><name>[숙소 후보] AMMI Masséna</name><Point><coordinates>7.26836,43.6978,0</coordinates></Point></Placemark>
<Placemark><name>[시장·생활] Cours Saleya</name><Point><coordinates>7.2758,43.69518,0</coordinates></Point></Placemark>
<Placemark><name>[핵심 방문지] Castle Hill</name><Point><coordinates>7.28077,43.69692,0</coordinates></Point></Placemark>
<Placemark><name>[교통] Nice-Ville</name><Point><coordinates>7.26199,43.70499,0</coordinates></Point></Placemark>
<Placemark><name>[근교·이동지] Cannes</name><Point><coordinates>7.01975,43.55332,0</coordinates></Point></Placemark>
<Placemark><name>[근교·이동지] Monaco</name><Point><coordinates>7.41904,43.73893,0</coordinates></Point></Placemark>
<Placemark><name>[시장·생활] Libération Market</name><Point><coordinates>7.26133,43.70841,0</coordinates></Point></Placemark>
<Placemark><name>[교통] NCE T2</name><Point><coordinates>7.20461,43.65971,0</coordinates></Point></Placemark>
</Document></kml>