{
  "type": "FeatureCollection",
  "features": [
    {
      "type": "Feature",
      "properties": {
        "name": "AMMI Masséna"
      },
      "geometry": {
        "type": "Point",
        "coordinates": [
          7.26836,
          43.6978
        ]
      }
    },
    {
      "type": "Feature",
      "properties": {
        "name": "Cours Saleya"
      },
      "geometry": {
        "type": "Point",
        "coordinates": [
          7.2758,
          43.69518
        ]
      }
    },
    {
      "type": "Feature",
      "properties": {
        "name": "Castle Hill"
      },
      "geometry": {
        "type": "Point",
        "coordinates": [
          7.28077,
          43.69692
        ]
      }
    },
    {
      "type": "Feature",
      "properties": {
        "name": "Nice-Ville"
      },
      "geometry": {
        "type": "Point",
        "coordinates": [
          7.26199,
          43.70499
        ]
      }
    },
    {
      "type": "Feature",
      "properties": {
        "name": "Cannes"
      },
      "geometry": {
        "type": "Point",
        "coordinates": [
          7.01975,
          43.55332
        ]
      }
    },
    {
      "type": "Feature",
      "properties": {
        "name": "Monaco"
      },
      "geometry": {
        "type": "Point",
        "coordinates": [
          7.41904,
          43.73893
        ]
      }
    },
    {
      "type": "Feature",
      "properties": {
        "name": "Libération Market"
      },
      "geometry": {
        "type": "Point",
        "coordinates": [
          7.26133,
          43.70841
        ]
      }
    },
    {
      "type": "Feature",
      "properties": {
        "name": "NCE T2"
      },
      "geometry": {
        "type": "Point",
        "coordinates": [
          7.20461,
          43.65971
        ]
      }
    }
  ]
}