<?xml version="1.0" encoding="UTF-8"?>
<kml xmlns="http://www.opengis.net/kml/2.2"><Document>
<Placemark><name>Pepper & Paper</name><Point><coordinates>2.34644,48.83966,0</coordinates></Point></Placemark>
<Placemark><name>Notre-Dame</name><Point><coordinates>2.3499,48.85297,0</coordinates></Point></Placemark>
<Placemark><name>Louvre</name><Point><coordinates>2.33764,48.86061,0</coordinates></Point></Placemark>
<Placemark><name>Montmartre</name><Point><coordinates>2.3431,48.8867,0</coordinates></Point></Placemark>
<Placemark><name>BnF Richelieu</name><Point><coordinates>2.33838,48.867,0</coordinates></Point></Placemark>
<Placemark><name>Grand Palais</name><Point><coordinates>2.31247,48.86613,0</coordinates></Point></Placemark>
<Placemark><name>Orsay</name><Point><coordinates>2.32656,48.85996,0</coordinates></Point></Placemark>
<Placemark><name>Bourse de Commerce</name><Point><coordinates>2.3422,48.86245,0</coordinates></Point></Placemark>
<Placemark><name>Versailles</name><Point><coordinates>2.12036,48.80486,0</coordinates></Point></Placemark>
<Placemark><name>Giverny</name><Point><coordinates>1.53375,49.0754,0</coordinates></Point></Placemark>
</Document></kml>