{
  "type": "FeatureCollection",
  "features": [
    {
      "type": "Feature",
      "properties": {
        "name": "Adagio Aix Centre",
        "sequence": 1,
        "category": "숙소 후보",
        "status": "후보 — 실제 예약 후 교체",
        "google_maps": "https://www.google.com/maps/search/?api=1&query=Adagio+Aix+Centre",
        "phase": "Phase 6"
      },
      "geometry": {
        "type": "Point",
        "coordinates": [
          5.440842,
          43.528998
        ]
      }
    },
    {
      "type": "Feature",
      "properties": {
        "name": "Rotonde",
        "sequence": 2,
        "category": "교통",
        "status": "일정 기준점",
        "google_maps": "https://www.google.com/maps/search/?api=1&query=Rotonde",
        "phase": "Phase 6"
      },
      "geometry": {
        "type": "Point",
        "coordinates": [
          5.44582,
          43.5267
        ]
      }
    },
    {
      "type": "Feature",
      "properties": {
        "name": "Cours Mirabeau",
        "sequence": 3,
        "category": "핵심 방문지",
        "status": "일정 기준점",
        "google_maps": "https://www.google.com/maps/search/?api=1&query=Cours+Mirabeau",
        "phase": "Phase 6"
      },
      "geometry": {
        "type": "Point",
        "coordinates": [
          5.44925,
          43.52622
        ]
      }
    },
    {
      "type": "Feature",
      "properties": {
        "name": "Musée Granet",
        "sequence": 4,
        "category": "핵심 방문지",
        "status": "일정 기준점",
        "google_maps": "https://www.google.com/maps/search/?api=1&query=Musée+Granet",
        "phase": "Phase 6"
      },
      "geometry": {
        "type": "Point",
        "coordinates": [
          5.45251,
          43.52557
        ]
      }
    },
    {
      "type": "Feature",
      "properties": {
        "name": "Cassis",
        "sequence": 5,
        "category": "근교·이동지",
        "status": "일정 기준점",
        "google_maps": "https://www.google.com/maps/search/?api=1&query=Cassis",
        "phase": "Phase 6"
      },
      "geometry": {
        "type": "Point",
        "coordinates": [
          5.53962,
          43.21401
        ]
      }
    },
    {
      "type": "Feature",
      "properties": {
        "name": "Atelier Cézanne",
        "sequence": 6,
        "category": "핵심 방문지",
        "status": "일정 기준점",
        "google_maps": "https://www.google.com/maps/search/?api=1&query=Atelier+Cézanne",
        "phase": "Phase 6"
      },
      "geometry": {
        "type": "Point",
        "coordinates": [
          5.44704,
          43.53964
        ]
      }
    },
    {
      "type": "Feature",
      "properties": {
        "name": "Lourmarin",
        "sequence": 7,
        "category": "근교·이동지",
        "status": "일정 기준점",
        "google_maps": "https://www.google.com/maps/search/?api=1&query=Lourmarin",
        "phase": "Phase 6"
      },
      "geometry": {
        "type": "Point",
        "coordinates": [
          5.36383,
          43.76373
        ]
      }
    }
  ]
}