{
  "type": "FeatureCollection",
  "features": [
    {
      "type": "Feature",
      "properties": {
        "name": "Domaine des Peyre",
        "sequence": 1,
        "category": "숙소 후보",
        "status": "후보 — 실제 예약 후 교체",
        "google_maps": "https://www.google.com/maps/search/?api=1&query=Domaine+des+Peyre",
        "phase": "Phase 6"
      },
      "geometry": {
        "type": "Point",
        "coordinates": [
          5.12202,
          43.87088
        ]
      }
    },
    {
      "type": "Feature",
      "properties": {
        "name": "Coustellet",
        "sequence": 2,
        "category": "시장·생활",
        "status": "일정 기준점",
        "google_maps": "https://www.google.com/maps/search/?api=1&query=Coustellet",
        "phase": "Phase 6"
      },
      "geometry": {
        "type": "Point",
        "coordinates": [
          5.14544,
          43.86673
        ]
      }
    },
    {
      "type": "Feature",
      "properties": {
        "name": "Roussillon",
        "sequence": 3,
        "category": "근교·이동지",
        "status": "일정 기준점",
        "google_maps": "https://www.google.com/maps/search/?api=1&query=Roussillon",
        "phase": "Phase 6"
      },
      "geometry": {
        "type": "Point",
        "coordinates": [
          5.29207,
          43.90202
        ]
      }
    },
    {
      "type": "Feature",
      "properties": {
        "name": "Goult",
        "sequence": 4,
        "category": "근교·이동지",
        "status": "일정 기준점",
        "google_maps": "https://www.google.com/maps/search/?api=1&query=Goult",
        "phase": "Phase 6"
      },
      "geometry": {
        "type": "Point",
        "coordinates": [
          5.24417,
          43.86306
        ]
      }
    },
    {
      "type": "Feature",
      "properties": {
        "name": "Gordes",
        "sequence": 5,
        "category": "근교·이동지",
        "status": "일정 기준점",
        "google_maps": "https://www.google.com/maps/search/?api=1&query=Gordes",
        "phase": "Phase 6"
      },
      "geometry": {
        "type": "Point",
        "coordinates": [
          5.20043,
          43.91181
        ]
      }
    },
    {
      "type": "Feature",
      "properties": {
        "name": "Village des Bories",
        "sequence": 6,
        "category": "근교·이동지",
        "status": "일정 기준점",
        "google_maps": "https://www.google.com/maps/search/?api=1&query=Village+des+Bories",
        "phase": "Phase 6"
      },
      "geometry": {
        "type": "Point",
        "coordinates": [
          5.1857,
          43.89728
        ]
      }
    },
    {
      "type": "Feature",
      "properties": {
        "name": "Ménerbes",
        "sequence": 7,
        "category": "근교·이동지",
        "status": "일정 기준점",
        "google_maps": "https://www.google.com/maps/search/?api=1&query=Ménerbes",
        "phase": "Phase 6"
      },
      "geometry": {
        "type": "Point",
        "coordinates": [
          5.20689,
          43.83274
        ]
      }
    },
    {
      "type": "Feature",
      "properties": {
        "name": "L’Isle-sur-la-Sorgue",
        "sequence": 8,
        "category": "근교·이동지",
        "status": "일정 기준점",
        "google_maps": "https://www.google.com/maps/search/?api=1&query=L’Isle-sur-la-Sorgue",
        "phase": "Phase 6"
      },
      "geometry": {
        "type": "Point",
        "coordinates": [
          5.05477,
          43.91904
        ]
      }
    }
  ]
}