{
  "type": "FeatureCollection",
  "features": [
    {
      "type": "Feature",
      "properties": {
        "name": "AMMI Masséna",
        "sequence": 1,
        "category": "숙소 후보",
        "status": "후보 — 실제 예약 후 교체",
        "google_maps": "https://www.google.com/maps/search/?api=1&query=AMMI+Masséna",
        "phase": "Phase 6"
      },
      "geometry": {
        "type": "Point",
        "coordinates": [
          7.26836,
          43.6978
        ]
      }
    },
    {
      "type": "Feature",
      "properties": {
        "name": "Cours Saleya",
        "sequence": 2,
        "category": "시장·생활",
        "status": "일정 기준점",
        "google_maps": "https://www.google.com/maps/search/?api=1&query=Cours+Saleya",
        "phase": "Phase 6"
      },
      "geometry": {
        "type": "Point",
        "coordinates": [
          7.2758,
          43.69518
        ]
      }
    },
    {
      "type": "Feature",
      "properties": {
        "name": "Castle Hill",
        "sequence": 3,
        "category": "핵심 방문지",
        "status": "일정 기준점",
        "google_maps": "https://www.google.com/maps/search/?api=1&query=Castle+Hill",
        "phase": "Phase 6"
      },
      "geometry": {
        "type": "Point",
        "coordinates": [
          7.28077,
          43.69692
        ]
      }
    },
    {
      "type": "Feature",
      "properties": {
        "name": "Nice-Ville",
        "sequence": 4,
        "category": "교통",
        "status": "일정 기준점",
        "google_maps": "https://www.google.com/maps/search/?api=1&query=Nice-Ville",
        "phase": "Phase 6"
      },
      "geometry": {
        "type": "Point",
        "coordinates": [
          7.26199,
          43.70499
        ]
      }
    },
    {
      "type": "Feature",
      "properties": {
        "name": "Cannes",
        "sequence": 5,
        "category": "근교·이동지",
        "status": "일정 기준점",
        "google_maps": "https://www.google.com/maps/search/?api=1&query=Cannes",
        "phase": "Phase 6"
      },
      "geometry": {
        "type": "Point",
        "coordinates": [
          7.01975,
          43.55332
        ]
      }
    },
    {
      "type": "Feature",
      "properties": {
        "name": "Monaco",
        "sequence": 6,
        "category": "근교·이동지",
        "status": "일정 기준점",
        "google_maps": "https://www.google.com/maps/search/?api=1&query=Monaco",
        "phase": "Phase 6"
      },
      "geometry": {
        "type": "Point",
        "coordinates": [
          7.41904,
          43.73893
        ]
      }
    },
    {
      "type": "Feature",
      "properties": {
        "name": "Libération Market",
        "sequence": 7,
        "category": "시장·생활",
        "status": "일정 기준점",
        "google_maps": "https://www.google.com/maps/search/?api=1&query=Libération+Market",
        "phase": "Phase 6"
      },
      "geometry": {
        "type": "Point",
        "coordinates": [
          7.26133,
          43.70841
        ]
      }
    },
    {
      "type": "Feature",
      "properties": {
        "name": "NCE T2",
        "sequence": 8,
        "category": "교통",
        "status": "일정 기준점",
        "google_maps": "https://www.google.com/maps/search/?api=1&query=NCE+T2",
        "phase": "Phase 6"
      },
      "geometry": {
        "type": "Point",
        "coordinates": [
          7.20461,
          43.65971
        ]
      }
    }
  ]
}