<?xml version="1.0" encoding="UTF-8"?>
<kml xmlns="http://www.opengis.net/kml/2.2"><Document>
<Placemark><name>[숙소 후보] Adagio Aix Centre</name><Point><coordinates>5.440842,43.528998,0</coordinates></Point></Placemark>
<Placemark><name>[교통] Rotonde</name><Point><coordinates>5.44582,43.5267,0</coordinates></Point></Placemark>
<Placemark><name>[핵심 방문지] Cours Mirabeau</name><Point><coordinates>5.44925,43.52622,0</coordinates></Point></Placemark>
<Placemark><name>[핵심 방문지] Musée Granet</name><Point><coordinates>5.45251,43.52557,0</coordinates></Point></Placemark>
<Placemark><name>[근교·이동지] Cassis</name><Point><coordinates>5.53962,43.21401,0</coordinates></Point></Placemark>
<Placemark><name>[핵심 방문지] Atelier Cézanne</name><Point><coordinates>5.44704,43.53964,0</coordinates></Point></Placemark>
<Placemark><name>[근교·이동지] Lourmarin</name><Point><coordinates>5.36383,43.76373,0</coordinates></Point></Placemark>
</Document></kml>