<?xml version="1.0" encoding="UTF-8"?>
<kml xmlns="http://www.opengis.net/kml/2.2"><Document>
<Placemark><name>[숙소 후보] La Terrasse du Clocher</name><Point><coordinates>4.81302,43.94993,0</coordinates></Point></Placemark>
<Placemark><name>[시장·생활] Les Halles</name><Point><coordinates>4.80903,43.94787,0</coordinates></Point></Placemark>
<Placemark><name>[핵심 방문지] Palais des Papes</name><Point><coordinates>4.8075,43.95078,0</coordinates></Point></Placemark>
<Placemark><name>[핵심 방문지] Pont Saint-Bénézet</name><Point><coordinates>4.80508,43.95389,0</coordinates></Point></Placemark>
<Placemark><name>[근교·이동지] Uzès</name><Point><coordinates>4.41974,44.0121,0</coordinates></Point></Placemark>
<Placemark><name>[근교·이동지] Pont du Gard</name><Point><coordinates>4.53502,43.9475,0</coordinates></Point></Placemark>
<Placemark><name>[근교·이동지] Les Baux</name><Point><coordinates>4.79531,43.74473,0</coordinates></Point></Placemark>
<Placemark><name>[근교·이동지] Saint-Rémy</name><Point><coordinates>4.83168,43.78842,0</coordinates></Point></Placemark>
</Document></kml>