{
  "type": "FeatureCollection",
  "features": [
    {
      "type": "Feature",
      "properties": {
        "name": "Praktik Garden",
        "sequence": 1,
        "category": "숙소 후보",
        "status": "후보 — 실제 예약 후 교체",
        "google_maps": "https://www.google.com/maps/search/?api=1&query=Praktik+Garden",
        "phase": "Phase 6"
      },
      "geometry": {
        "type": "Point",
        "coordinates": [
          2.17132,
          41.39382
        ]
      }
    },
    {
      "type": "Feature",
      "properties": {
        "name": "Sagrada Família",
        "sequence": 2,
        "category": "핵심 방문지",
        "status": "일정 기준점",
        "google_maps": "https://www.google.com/maps/search/?api=1&query=Sagrada+Família",
        "phase": "Phase 6"
      },
      "geometry": {
        "type": "Point",
        "coordinates": [
          2.17436,
          41.40363
        ]
      }
    },
    {
      "type": "Feature",
      "properties": {
        "name": "Sant Pau",
        "sequence": 3,
        "category": "핵심 방문지",
        "status": "일정 기준점",
        "google_maps": "https://www.google.com/maps/search/?api=1&query=Sant+Pau",
        "phase": "Phase 6"
      },
      "geometry": {
        "type": "Point",
        "coordinates": [
          2.17438,
          41.41193
        ]
      }
    },
    {
      "type": "Feature",
      "properties": {
        "name": "Gòtic",
        "sequence": 4,
        "category": "핵심 방문지",
        "status": "일정 기준점",
        "google_maps": "https://www.google.com/maps/search/?api=1&query=Gòtic",
        "phase": "Phase 6"
      },
      "geometry": {
        "type": "Point",
        "coordinates": [
          2.1761,
          41.3838
        ]
      }
    },
    {
      "type": "Feature",
      "properties": {
        "name": "Biblioteca de Catalunya",
        "sequence": 5,
        "category": "핵심 방문지",
        "status": "일정 기준점",
        "google_maps": "https://www.google.com/maps/search/?api=1&query=Biblioteca+de+Catalunya",
        "phase": "Phase 6"
      },
      "geometry": {
        "type": "Point",
        "coordinates": [
          2.17016,
          41.38144
        ]
      }
    },
    {
      "type": "Feature",
      "properties": {
        "name": "MACBA",
        "sequence": 6,
        "category": "핵심 방문지",
        "status": "일정 기준점",
        "google_maps": "https://www.google.com/maps/search/?api=1&query=MACBA",
        "phase": "Phase 6"
      },
      "geometry": {
        "type": "Point",
        "coordinates": [
          2.16672,
          41.38316
        ]
      }
    },
    {
      "type": "Feature",
      "properties": {
        "name": "Barcelona Sants",
        "sequence": 7,
        "category": "교통",
        "status": "일정 기준점",
        "google_maps": "https://www.google.com/maps/search/?api=1&query=Barcelona+Sants",
        "phase": "Phase 6"
      },
      "geometry": {
        "type": "Point",
        "coordinates": [
          2.14007,
          41.37917
        ]
      }
    },
    {
      "type": "Feature",
      "properties": {
        "name": "Sitges",
        "sequence": 8,
        "category": "근교·이동지",
        "status": "일정 기준점",
        "google_maps": "https://www.google.com/maps/search/?api=1&query=Sitges",
        "phase": "Phase 6"
      },
      "geometry": {
        "type": "Point",
        "coordinates": [
          1.81204,
          41.23512
        ]
      }
    }
  ]
}