<?xml version="1.0" encoding="UTF-8"?>
<kml xmlns="http://www.opengis.net/kml/2.2"><Document>
<Placemark><name>[확정 숙소] Barcelona 확정 숙소 — Occidental Barcelona 1929 — 2026-08-29~09-01</name><description>Carrer de la Creu Coberta, 20-22, 08014 Barcelona, Catalonia, Spain</description><Point><coordinates>2.1476619,41.3752738,0</coordinates></Point></Placemark>
<Placemark><name>[핵심 방문지] Sagrada Família</name><Point><coordinates>2.17436,41.40363,0</coordinates></Point></Placemark>
<Placemark><name>[핵심 방문지] Sant Pau</name><Point><coordinates>2.17438,41.41193,0</coordinates></Point></Placemark>
<Placemark><name>[핵심 방문지] Gòtic</name><Point><coordinates>2.1761,41.3838,0</coordinates></Point></Placemark>
<Placemark><name>[핵심 방문지] Biblioteca de Catalunya</name><Point><coordinates>2.17016,41.38144,0</coordinates></Point></Placemark>
<Placemark><name>[핵심 방문지] MACBA</name><Point><coordinates>2.16672,41.38316,0</coordinates></Point></Placemark>
<Placemark><name>[교통] Barcelona Sants</name><Point><coordinates>2.14007,41.37917,0</coordinates></Point></Placemark>
<Placemark><name>[근교·이동지] Sitges</name><Point><coordinates>1.81204,41.23512,0</coordinates></Point></Placemark>
</Document></kml>