{
  "type": "FeatureCollection",
  "features": [
    {
      "type": "Feature",
      "properties": {
        "name": "Pepper & Paper",
        "sequence": 1,
        "category": "숙소 후보",
        "status": "후보 — 실제 예약 후 교체",
        "google_maps": "https://www.google.com/maps/search/?api=1&query=Pepper+&+Paper",
        "phase": "Phase 6"
      },
      "geometry": {
        "type": "Point",
        "coordinates": [
          2.34644,
          48.83966
        ]
      }
    },
    {
      "type": "Feature",
      "properties": {
        "name": "Notre-Dame",
        "sequence": 2,
        "category": "핵심 방문지",
        "status": "일정 기준점",
        "google_maps": "https://www.google.com/maps/search/?api=1&query=Notre-Dame",
        "phase": "Phase 6"
      },
      "geometry": {
        "type": "Point",
        "coordinates": [
          2.3499,
          48.85297
        ]
      }
    },
    {
      "type": "Feature",
      "properties": {
        "name": "Louvre",
        "sequence": 3,
        "category": "핵심 방문지",
        "status": "일정 기준점",
        "google_maps": "https://www.google.com/maps/search/?api=1&query=Louvre",
        "phase": "Phase 6"
      },
      "geometry": {
        "type": "Point",
        "coordinates": [
          2.33764,
          48.86061
        ]
      }
    },
    {
      "type": "Feature",
      "properties": {
        "name": "Montmartre",
        "sequence": 4,
        "category": "핵심 방문지",
        "status": "일정 기준점",
        "google_maps": "https://www.google.com/maps/search/?api=1&query=Montmartre",
        "phase": "Phase 6"
      },
      "geometry": {
        "type": "Point",
        "coordinates": [
          2.3431,
          48.8867
        ]
      }
    },
    {
      "type": "Feature",
      "properties": {
        "name": "BnF Richelieu",
        "sequence": 5,
        "category": "핵심 방문지",
        "status": "일정 기준점",
        "google_maps": "https://www.google.com/maps/search/?api=1&query=BnF+Richelieu",
        "phase": "Phase 6"
      },
      "geometry": {
        "type": "Point",
        "coordinates": [
          2.33838,
          48.867
        ]
      }
    },
    {
      "type": "Feature",
      "properties": {
        "name": "Grand Palais",
        "sequence": 6,
        "category": "핵심 방문지",
        "status": "일정 기준점",
        "google_maps": "https://www.google.com/maps/search/?api=1&query=Grand+Palais",
        "phase": "Phase 6"
      },
      "geometry": {
        "type": "Point",
        "coordinates": [
          2.31247,
          48.86613
        ]
      }
    },
    {
      "type": "Feature",
      "properties": {
        "name": "Orsay",
        "sequence": 7,
        "category": "핵심 방문지",
        "status": "일정 기준점",
        "google_maps": "https://www.google.com/maps/search/?api=1&query=Orsay",
        "phase": "Phase 6"
      },
      "geometry": {
        "type": "Point",
        "coordinates": [
          2.32656,
          48.85996
        ]
      }
    },
    {
      "type": "Feature",
      "properties": {
        "name": "Bourse de Commerce",
        "sequence": 8,
        "category": "핵심 방문지",
        "status": "일정 기준점",
        "google_maps": "https://www.google.com/maps/search/?api=1&query=Bourse+de+Commerce",
        "phase": "Phase 6"
      },
      "geometry": {
        "type": "Point",
        "coordinates": [
          2.3422,
          48.86245
        ]
      }
    },
    {
      "type": "Feature",
      "properties": {
        "name": "Versailles",
        "sequence": 9,
        "category": "근교·이동지",
        "status": "일정 기준점",
        "google_maps": "https://www.google.com/maps/search/?api=1&query=Versailles",
        "phase": "Phase 6"
      },
      "geometry": {
        "type": "Point",
        "coordinates": [
          2.12036,
          48.80486
        ]
      }
    },
    {
      "type": "Feature",
      "properties": {
        "name": "Giverny",
        "sequence": 10,
        "category": "근교·이동지",
        "status": "일정 기준점",
        "google_maps": "https://www.google.com/maps/search/?api=1&query=Giverny",
        "phase": "Phase 6"
      },
      "geometry": {
        "type": "Point",
        "coordinates": [
          1.53375,
          49.0754
        ]
      }
    }
  ]
}