<?xml version="1.0" encoding="UTF-8"?>
<kml xmlns="http://www.opengis.net/kml/2.2"><Document>
<Placemark><name>[숙소 후보] Domaine des Peyre</name><Point><coordinates>5.12202,43.87088,0</coordinates></Point></Placemark>
<Placemark><name>[시장·생활] Coustellet</name><Point><coordinates>5.14544,43.86673,0</coordinates></Point></Placemark>
<Placemark><name>[근교·이동지] Roussillon</name><Point><coordinates>5.29207,43.90202,0</coordinates></Point></Placemark>
<Placemark><name>[근교·이동지] Goult</name><Point><coordinates>5.24417,43.86306,0</coordinates></Point></Placemark>
<Placemark><name>[근교·이동지] Gordes</name><Point><coordinates>5.20043,43.91181,0</coordinates></Point></Placemark>
<Placemark><name>[근교·이동지] Village des Bories</name><Point><coordinates>5.1857,43.89728,0</coordinates></Point></Placemark>
<Placemark><name>[근교·이동지] Ménerbes</name><Point><coordinates>5.20689,43.83274,0</coordinates></Point></Placemark>
<Placemark><name>[근교·이동지] L’Isle-sur-la-Sorgue</name><Point><coordinates>5.05477,43.91904,0</coordinates></Point></Placemark>
</Document></kml>